OBJECT_NAME,OBJECT_ID,EPOCH,MEAN_MOTION,ECCENTRICITY,INCLINATION,RA_OF_ASC_NODE,ARG_OF_PERICENTER,MEAN_ANOMALY,EPHEMERIS_TYPE,CLASSIFICATION_TYPE,NORAD_CAT_ID,ELEMENT_SET_NO,REV_AT_EPOCH,BSTAR,MEAN_MOTION_DOT,MEAN_MOTION_DDOT
H-2A R/B,2006-002B,2026-06-30T23:05:00.202560,15.18248176,.0049984,98.2579,339.0391,214.5565,145.2415,0,U,28932,999,11161,.42119783E-3,.8831E-4,0
RESURS-DK 1,2006-021A,2026-06-30T18:49:50.125152,15.13271968,.00066949,69.9341,304.3547,285.3513,74.6913,0,U,29228,999,10463,.12821145E-3,.2178E-4,0
CZ-4B R/B,2006-046C,2026-06-30T16:50:23.939808,15.17879881,.00313096,97.5440,226.2670,233.4235,126.4117,0,U,29507,999,7718,.18464416E-3,.3717E-4,0
CZ-2C R/B,2007-010B,2026-06-30T07:18:04.760928,14.20278887,.00582749,98.4111,289.0143,327.7830,31.9792,0,U,31114,999,99570,.52388507E-4,.72E-6,0
COSMO-SKYMED 1,2007-023A,2026-06-30T23:16:46.937280,14.97170900,.00014992,97.8855,13.9422,84.2100,275.9292,0,U,31598,999,3185,.18912122E-3,.2126E-4,0
COSMOS 2428,2007-029A,2026-06-30T19:22:31.647072,14.12928500,.00071274,70.9377,325.8792,108.9662,251.2232,0,U,31792,999,98007,.52333036E-4,.5E-6,0
SL-16 R/B,2007-029B,2026-06-30T11:22:00.252192,14.14853598,.0002429,70.9768,295.2989,262.3056,168.6226,0,U,31793,999,98132,-.10813465E-3,-.257E-5,0
KORONAS-FOTON,2009-003A,2026-06-30T22:20:38.708448,15.46004786,.00126107,82.4290,157.9190,105.2165,255.0479,0,U,33504,999,96322,.23844415E-3,.11706E-3,0
CZ-2C R/B,2011-030B,2026-06-30T19:28:10.169184,14.81504354,.00518721,97.8661,136.9520,343.8409,34.1518,0,U,37731,999,80684,.16493922E-3,.1268E-4,0
H-2A R/B,2012-025E,2026-06-30T20:53:50.190720,14.95781263,.00426034,98.4825,158.1445,303.2122,56.5015,0,U,38341,999,76513,.26676562E-3,.2959E-4,0
SHIJIAN-16 (SJ-16),2013-057A,2026-06-30T21:54:32.259168,14.92631322,.00164239,74.9731,330.6850,198.7606,161.2979,0,U,39358,999,68839,.14990602E-3,.1518E-4,0
SL-4 R/B,2014-021B,2026-06-30T03:42:19.854144,15.42202414,.00905819,51.6043,147.2323,153.2580,207.3118,0,U,39679,999,67361,.17315912E-3,.8299E-4,0
ALOS-2,2014-029A,2026-06-30T20:50:50.445024,14.79474729,.00015985,97.9232,278.8362,87.5110,272.6284,0,U,39766,999,65360,.10487953E-3,.732E-5,0
YAOGAN-29,2015-069A,2026-07-01T00:12:33.432192,14.83094059,.00018365,98.0021,210.6626,32.4778,327.6548,0,U,41038,999,57267,-.3368266E-4,-.328E-5,0
ASTRO-H (HITOMI),2016-012A,2026-06-30T18:41:24.661824,15.10572596,.00096344,31.0005,346.4066,29.3738,330.7441,0,U,41337,999,56934,.16084436E-3,.2818E-4,0
HXMT (HUIYAN),2017-034A,2026-06-30T22:44:19.305888,15.18575174,.00326043,43.0145,106.4142,233.9862,125.7963,0,U,42758,999,49975,.21429948E-3,.4329E-4,0
SAOCOM 1A,2018-076A,2026-06-30T23:25:01.502112,14.82158325,.0001569,97.8878,8.5236,77.9341,282.2048,0,U,43641,999,41814,.24578111E-4,.143E-5,0
H-2A R/B,2018-084L,2026-06-30T20:31:07.150368,15.45679839,.00218847,98.8557,63.7357,353.1636,6.9307,0,U,43682,999,42323,.47320118E-3,.22961E-3,0
SAOCOM 1B,2020-059A,2026-06-30T22:32:44.212704,14.82149524,.00015919,97.8880,7.5834,81.6066,278.5327,0,U,46265,999,31552,.95794151E-4,.71E-5,0
CSS (TIANHE),2021-035A,2026-06-30T20:37:34.500576,15.61388759,.00087205,41.4677,238.7619,188.7770,171.2918,0,U,48274,999,29533,.24432091E-3,.21186E-3,0
COSMOS 2550,2021-056A,2026-06-30T23:29:01.121280,15.33859328,.0008363,67.1434,58.1885,268.9610,91.0586,0,U,48865,999,28083,.17495537E-3,.5574E-4,0
CZ-2C R/B,2022-058K,2026-06-30T22:18:20.453760,15.62816234,.00315471,50.1859,91.9633,324.0587,35.8265,0,U,52794,999,22779,.44923595E-3,.42061E-3,0
CZ-2C R/B,2022-132E,2026-06-30T00:12:48.480480,15.73080866,.0013156,97.2890,188.6182,42.7723,317.4562,0,U,54039,999,20796,.51238168E-3,.70629E-3,0
GSLV R/B,2022-138AN,2026-06-30T19:38:37.529088,14.97321086,.0024152,87.3816,128.4071,98.9323,261.4644,0,U,54149,999,20085,.20862161E-3,.2462E-4,0
XRISM,2023-137A,2026-06-30T22:00:37.033056,15.12582544,.00077158,31.0022,270.6602,102.3924,257.7578,0,U,57800,999,15494,.2745491E-3,.5011E-4,0
ACS3,2024-077B,2026-06-30T08:04:58.449504,13.94555943,.010442,97.1700,97.2009,52.7337,308.3297,0,U,59588,999,10987,.78637348E-2,.10972E-3,0
CZ-8A R/B,2025-231K,2026-06-30T21:17:28.340448,14.30158530,.01164834,50.0054,341.0307,272.2400,86.5182,0,U,66004,999,3690,.54392548E-4,-.11E-6,0
SZ-21 MODULE,2025-246C,2026-06-30T12:21:40.428864,15.77532205,.0004988,41.4700,224.2498,103.9916,256.1484,0,U,66515,999,3584,.24276765E-3,.41495E-3,0
